{
  "type": "FeatureCollection",
  "features": [
    {
      "type": "Feature",
      "properties": {
        "norad_id": 58647,
        "name": "TIANMU-1 13",
        "group": "weather",
        "lat": -77.1192642249066,
        "lon": 33.179472750697265,
        "alt_km": 495.99635504221624,
        "timestamp": "2025-12-04T23:34:05.374625+00:00",
        "meta_object_name": "TIANMU-1 13",
        "meta_object_id": "2023-205C",
        "meta_epoch": "2025-12-04T19:11:21.905376",
        "meta_mean_motion": 15.24372607,
        "meta_eccentricity": 0.0006291,
        "meta_inclination": 97.3622,
        "meta_ra_of_asc_node": 358.5692,
        "meta_arg_of_pericenter": 303.189,
        "meta_mean_anomaly": 56.8744,
        "meta_ephemeris_type": 0,
        "meta_classification_type": "U",
        "meta_norad_cat_id": 58647,
        "meta_element_set_no": 999,
        "meta_rev_at_epoch": 10786,
        "meta_bstar": 0.00055143,
        "meta_mean_motion_dot": 0.00013454,
        "meta_mean_motion_ddot": 0,
        "tle_line1": "1 58647U 23205C   25338.79955909  .00013454  00000+0  55143-3 0  9993",
        "tle_line2": "2 58647  97.3622 358.5692 0006291 303.1890  56.8744 15.24372607107864"
      },
      "geometry": {
        "type": "Point",
        "coordinates": [
          33.179472750697265,
          -77.1192642249066
        ]
      }
    },
    {
      "type": "Feature",
      "properties": {
        "norad_id": 58648,
        "name": "TIANMU-1 14",
        "group": "weather",
        "lat": 12.001797853864215,
        "lon": -3.469253466656186,
        "alt_km": 492.0132874449064,
        "timestamp": "2025-12-04T23:34:05.374635+00:00",
        "meta_object_name": "TIANMU-1 14",
        "meta_object_id": "2023-205D",
        "meta_epoch": "2025-12-04T17:12:48.544128",
        "meta_mean_motion": 15.24355337,
        "meta_eccentricity": 0.0007177,
        "meta_inclination": 97.3554,
        "meta_ra_of_asc_node": 357.8445,
        "meta_arg_of_pericenter": 308.2097,
        "meta_mean_anomaly": 51.8494,
        "meta_ephemeris_type": 0,
        "meta_classification_type": "U",
        "meta_norad_cat_id": 58648,
        "meta_element_set_no": 999,
        "meta_rev_at_epoch": 10785,
        "meta_bstar": 0.0005379,
        "meta_mean_motion_dot": 0.00013117,
        "meta_mean_motion_ddot": 0,
        "tle_line1": "1 58648U 23205D   25338.71722852  .00013117  00000+0  53790-3 0  9997",
        "tle_line2": "2 58648  97.3554 357.8445 0007177 308.2097  51.8494 15.24355337107853"
      },
      "geometry": {
        "type": "Point",
        "coordinates": [
          -3.469253466656186,
          12.001797853864215
        ]
      }
    },
    {
      "type": "Feature",
      "properties": {
        "norad_id": 58660,
        "name": "TIANMU-1 19",
        "group": "weather",
        "lat": 5.089909952210381,
        "lon": -89.29705644016263,
        "alt_km": 486.40393977837175,
        "timestamp": "2025-12-04T23:34:05.374645+00:00",
        "meta_object_name": "TIANMU-1 19",
        "meta_object_id": "2023-208A",
        "meta_epoch": "2025-12-04T18:05:20.461056",
        "meta_mean_motion": 15.2762508,
        "meta_eccentricity": 0.0004085,
        "meta_inclination": 97.4397,
        "meta_ra_of_asc_node": 89.8083,
        "meta_arg_of_pericenter": 288.7664,
        "meta_mean_anomaly": 71.3132,
        "meta_ephemeris_type": 0,
        "meta_classification_type": "U",
        "meta_norad_cat_id": 58660,
        "meta_element_set_no": 999,
        "meta_rev_at_epoch": 10760,
        "meta_bstar": 0.00068391,
        "meta_mean_motion_dot": 0.00018426,
        "meta_mean_motion_ddot": 0,
        "tle_line1": "1 58660U 23208A   25338.75370904  .00018426  00000+0  68391-3 0  9996",
        "tle_line2": "2 58660  97.4397  89.8083 0004085 288.7664  71.3132 15.27625080107607"
      },
      "geometry": {
        "type": "Point",
        "coordinates": [
          -89.29705644016263,
          5.089909952210381
        ]
      }
    },
    {
      "type": "Feature",
      "properties": {
        "norad_id": 58661,
        "name": "TIANMU-1 20",
        "group": "weather",
        "lat": -35.49467718577352,
        "lon": -94.86642843059583,
        "alt_km": 485.1246187297884,
        "timestamp": "2025-12-04T23:34:05.374656+00:00",
        "meta_object_name": "TIANMU-1 20",
        "meta_object_id": "2023-208B",
        "meta_epoch": "2025-12-04T17:54:51.125184",
        "meta_mean_motion": 15.28816396,
        "meta_eccentricity": 0.0006435,
        "meta_inclination": 97.4334,
        "meta_ra_of_asc_node": 90.2409,
        "meta_arg_of_pericenter": 299.2642,
        "meta_mean_anomaly": 60.7954,
        "meta_ephemeris_type": 0,
        "meta_classification_type": "U",
        "meta_norad_cat_id": 58661,
        "meta_element_set_no": 999,
        "meta_rev_at_epoch": 10767,
        "meta_bstar": 0.00064987,
        "meta_mean_motion_dot": 0.00018159,
        "meta_mean_motion_ddot": 0,
        "tle_line1": "1 58661U 23208B   25338.74642506  .00018159  00000+0  64987-3 0  9996",
        "tle_line2": "2 58661  97.4334  90.2409 0006435 299.2642  60.7954 15.28816396107675"
      },
      "geometry": {
        "type": "Point",
        "coordinates": [
          -94.86642843059583,
          -35.49467718577352
        ]
      }
    },
    {
      "type": "Feature",
      "properties": {
        "norad_id": 58662,
        "name": "TIANMU-1 21",
        "group": "weather",
        "lat": 28.63916105797888,
        "lon": -83.55871857668892,
        "alt_km": 473.90262737666126,
        "timestamp": "2025-12-04T23:34:05.374666+00:00",
        "meta_object_name": "TIANMU-1 21",
        "meta_object_id": "2023-208C",
        "meta_epoch": "2025-12-04T18:12:19.887264",
        "meta_mean_motion": 15.31290573,
        "meta_eccentricity": 0.0005943,
        "meta_inclination": 97.4382,
        "meta_ra_of_asc_node": 92.1258,
        "meta_arg_of_pericenter": 293.3099,
        "meta_mean_anomaly": 66.7516,
        "meta_ephemeris_type": 0,
        "meta_classification_type": "U",
        "meta_norad_cat_id": 58662,
        "meta_element_set_no": 999,
        "meta_rev_at_epoch": 10777,
        "meta_bstar": 0.00069242,
        "meta_mean_motion_dot": 0.00020893,
        "meta_mean_motion_ddot": 0,
        "tle_line1": "1 58662U 23208C   25338.75856351  .00020893  00000+0  69242-3 0  9990",
        "tle_line2": "2 58662  97.4382  92.1258 0005943 293.3099  66.7516 15.31290573107774"
      },
      "geometry": {
        "type": "Point",
        "coordinates": [
          -83.55871857668892,
          28.63916105797888
        ]
      }
    },
    {
      "type": "Feature",
      "properties": {
        "norad_id": 58663,
        "name": "TIANMU-1 22",
        "group": "weather",
        "lat": -2.7078476352721537,
        "lon": -90.2553687709009,
        "alt_km": 488.63793414819884,
        "timestamp": "2025-12-04T23:34:05.374676+00:00",
        "meta_object_name": "TIANMU-1 22",
        "meta_object_id": "2023-208D",
        "meta_epoch": "2025-12-04T18:03:14.613408",
        "meta_mean_motion": 15.27396045,
        "meta_eccentricity": 0.0003007,
        "meta_inclination": 97.439,
        "meta_ra_of_asc_node": 89.8696,
        "meta_arg_of_pericenter": 324.9806,
        "meta_mean_anomaly": 35.1235,
        "meta_ephemeris_type": 0,
        "meta_classification_type": "U",
        "meta_norad_cat_id": 58663,
        "meta_element_set_no": 999,
        "meta_rev_at_epoch": 10761,
        "meta_bstar": 0.00066154,
        "meta_mean_motion_dot": 0.00017694,
        "meta_mean_motion_ddot": 0,
        "tle_line1": "1 58663U 23208D   25338.75225247  .00017694  00000+0  66154-3 0  9999",
        "tle_line2": "2 58663  97.4390  89.8696 0003007 324.9806  35.1235 15.27396045107616"
      },
      "geometry": {
        "type": "Point",
        "coordinates": [
          -90.2553687709009,
          -2.7078476352721537
        ]
      }
    },
    {
      "type": "Feature",
      "properties": {
        "norad_id": 58700,
        "name": "TIANMU-1 15",
        "group": "weather",
        "lat": 32.62143382283475,
        "lon": 155.66702523789388,
        "alt_km": 488.57467782110416,
        "timestamp": "2025-12-04T23:34:05.374686+00:00",
        "meta_object_name": "TIANMU-1 15",
        "meta_object_id": "2024-004A",
        "meta_epoch": "2025-12-04T18:41:54.388608",
        "meta_mean_motion": 15.2451637,
        "meta_eccentricity": 0.0005679,
        "meta_inclination": 97.4624,
        "meta_ra_of_asc_node": 160.2775,
        "meta_arg_of_pericenter": 330.8355,
        "meta_mean_anomaly": 29.2565,
        "meta_ephemeris_type": 0,
        "meta_classification_type": "U",
        "meta_norad_cat_id": 58700,
        "meta_element_set_no": 999,
        "meta_rev_at_epoch": 10613,
        "meta_bstar": 0.00057433,
        "meta_mean_motion_dot": 0.00014074,
        "meta_mean_motion_ddot": 0,
        "tle_line1": "1 58700U 24004A   25338.77910172  .00014074  00000+0  57433-3 0  9995",
        "tle_line2": "2 58700  97.4624 160.2775 0005679 330.8355  29.2565 15.24516370106130"
      },
      "geometry": {
        "type": "Point",
        "coordinates": [
          155.66702523789388,
          32.62143382283475
        ]
      }
    }
  ]
}